{
  "type": "FeatureCollection",
  "features": [
    {
      "type": "Feature",
      "properties": {
        "norad_id": 29740,
        "name": "FENGYUN 1C DEB",
        "group": "fengyun-1c-debris",
        "lat": 18.064453626036403,
        "lon": 18.41347762254088,
        "alt_km": 1055.7253701992113,
        "timestamp": "2025-12-08T17:43:05.201933+00:00",
        "meta_object_name": "FENGYUN 1C DEB",
        "meta_object_id": "1999-025AE",
        "meta_epoch": "2025-12-08T00:51:25.731072",
        "meta_mean_motion": 12.08323678,
        "meta_eccentricity": 0.09754132,
        "meta_inclination": 99.0444,
        "meta_ra_of_asc_node": 194.9338,
        "meta_arg_of_pericenter": 208.1091,
        "meta_mean_anomaly": 146.3856,
        "meta_ephemeris_type": 0,
        "meta_classification_type": "U",
        "meta_norad_cat_id": 29740,
        "meta_element_set_no": 999,
        "meta_rev_at_epoch": 82878,
        "meta_bstar": -3.718945e-05,
        "meta_mean_motion_dot": -4.2e-07,
        "meta_mean_motion_ddot": 0,
        "tle_line1": "1 29740U 99025AE  25342.03571448 -.00000042  00000+0 -37189-4 0  9994",
        "tle_line2": "2 29740  99.0444 194.9338 0975413 208.1091 146.3856 12.08323678828787"
      },
      "geometry": {
        "type": "Point",
        "coordinates": [
          18.41347762254088,
          18.064453626036403
        ]
      }
    },
    {
      "type": "Feature",
      "properties": {
        "norad_id": 29741,
        "name": "FENGYUN 1C DEB",
        "group": "fengyun-1c-debris",
        "lat": 20.702884051429212,
        "lon": 41.70991456578742,
        "alt_km": 1551.6249591608757,
        "timestamp": "2025-12-08T17:43:05.201958+00:00",
        "meta_object_name": "FENGYUN 1C DEB",
        "meta_object_id": "1999-025AF",
        "meta_epoch": "2025-12-08T05:32:42.732096",
        "meta_mean_motion": 12.00910355,
        "meta_eccentricity": 0.10239735,
        "meta_inclination": 99.1749,
        "meta_ra_of_asc_node": 217.8454,
        "meta_arg_of_pericenter": 72.7588,
        "meta_mean_anomaly": 42.7128,
        "meta_ephemeris_type": 0,
        "meta_classification_type": "U",
        "meta_norad_cat_id": 29741,
        "meta_element_set_no": 999,
        "meta_rev_at_epoch": 52129,
        "meta_bstar": 0.006543589,
        "meta_mean_motion_dot": 2.539e-05,
        "meta_mean_motion_ddot": 0,
        "tle_line1": "1 29741U 99025AF  25342.23105014  .00002539  00000+0  65436-2 0  9994",
        "tle_line2": "2 29741  99.1749 217.8454 1023973  72.7588  42.7128 12.00910355521296"
      },
      "geometry": {
        "type": "Point",
        "coordinates": [
          41.70991456578742,
          20.702884051429212
        ]
      }
    },
    {
      "type": "Feature",
      "properties": {
        "norad_id": 29748,
        "name": "FENGYUN 1C DEB",
        "group": "fengyun-1c-debris",
        "lat": -43.22332981427292,
        "lon": 85.32404518215637,
        "alt_km": 2324.0952801843587,
        "timestamp": "2025-12-08T17:43:05.201976+00:00",
        "meta_object_name": "FENGYUN 1C DEB",
        "meta_object_id": "1999-025AN",
        "meta_epoch": "2025-12-08T02:19:32.345760",
        "meta_mean_motion": 11.89712799,
        "meta_eccentricity": 0.08380249,
        "meta_inclination": 99.802,
        "meta_ra_of_asc_node": 274.197,
        "meta_arg_of_pericenter": 17.8445,
        "meta_mean_anomaly": 345.0241,
        "meta_ephemeris_type": 0,
        "meta_classification_type": "U",
        "meta_norad_cat_id": 29748,
        "meta_element_set_no": 999,
        "meta_rev_at_epoch": 78678,
        "meta_bstar": 0.1789215,
        "meta_mean_motion_dot": 0.00034182,
        "meta_mean_motion_ddot": 0,
        "tle_line1": "1 29748U 99025AN  25342.09690215  .00034182  00000+0  17892+0 0  9996",
        "tle_line2": "2 29748  99.8020 274.1970 0838024  17.8445 345.0241 11.89712799786783"
      },
      "geometry": {
        "type": "Point",
        "coordinates": [
          85.32404518215637,
          -43.22332981427292
        ]
      }
    },
    {
      "type": "Feature",
      "properties": {
        "norad_id": 29750,
        "name": "FENGYUN 1C DEB",
        "group": "fengyun-1c-debris",
        "lat": 48.20842539397945,
        "lon": -158.1056042399694,
        "alt_km": 881.6926571482581,
        "timestamp": "2025-12-08T17:43:05.201988+00:00",
        "meta_object_name": "FENGYUN 1C DEB",
        "meta_object_id": "1999-025AQ",
        "meta_epoch": "2025-12-08T02:03:11.563200",
        "meta_mean_motion": 14.09637525,
        "meta_eccentricity": 0.00351764,
        "meta_inclination": 98.755,
        "meta_ra_of_asc_node": 11.3321,
        "meta_arg_of_pericenter": 314.9173,
        "meta_mean_anomaly": 105.5964,
        "meta_ephemeris_type": 0,
        "meta_classification_type": "U",
        "meta_norad_cat_id": 29750,
        "meta_element_set_no": 999,
        "meta_rev_at_epoch": 97008,
        "meta_bstar": 0.00039047432,
        "meta_mean_motion_dot": 6.45e-06,
        "meta_mean_motion_ddot": 0,
        "tle_line1": "1 29750U 99025AQ  25342.08555050  .00000645  00000+0  39047-3 0  9992",
        "tle_line2": "2 29750  98.7550  11.3321 0035176 314.9173 105.5964 14.09637525970086"
      },
      "geometry": {
        "type": "Point",
        "coordinates": [
          -158.1056042399694,
          48.20842539397945
        ]
      }
    },
    {
      "type": "Feature",
      "properties": {
        "norad_id": 29751,
        "name": "FENGYUN 1C DEB",
        "group": "fengyun-1c-debris",
        "lat": 64.0415590878073,
        "lon": -7.255900191324387,
        "alt_km": 801.022920828832,
        "timestamp": "2025-12-08T17:43:05.201999+00:00",
        "meta_object_name": "FENGYUN 1C DEB",
        "meta_object_id": "1999-025AR",
        "meta_epoch": "2025-12-08T00:51:31.367808",
        "meta_mean_motion": 14.23623473,
        "meta_eccentricity": 0.00897174,
        "meta_inclination": 98.5419,
        "meta_ra_of_asc_node": 10.0439,
        "meta_arg_of_pericenter": 152.8181,
        "meta_mean_anomaly": 275.4763,
        "meta_ephemeris_type": 0,
        "meta_classification_type": "U",
        "meta_norad_cat_id": 29751,
        "meta_element_set_no": 999,
        "meta_rev_at_epoch": 98006,
        "meta_bstar": 0.00025113955,
        "meta_mean_motion_dot": 5.55e-06,
        "meta_mean_motion_ddot": 0,
        "tle_line1": "1 29751U 99025AR  25342.03577972  .00000555  00000+0  25114-3 0  9995",
        "tle_line2": "2 29751  98.5419  10.0439 0089717 152.8181 275.4763 14.23623473980069"
      },
      "geometry": {
        "type": "Point",
        "coordinates": [
          -7.255900191324387,
          64.0415590878073
        ]
      }
    },
    {
      "type": "Feature",
      "properties": {
        "norad_id": 29754,
        "name": "FENGYUN 1C DEB",
        "group": "fengyun-1c-debris",
        "lat": -79.82362275476058,
        "lon": -155.15351228208925,
        "alt_km": 810.6534355682779,
        "timestamp": "2025-12-08T17:43:05.202010+00:00",
        "meta_object_name": "FENGYUN 1C DEB",
        "meta_object_id": "1999-025AU",
        "meta_epoch": "2025-12-08T06:37:35.935968",
        "meta_mean_motion": 14.19122789,
        "meta_eccentricity": 0.00357319,
        "meta_inclination": 98.8845,
        "meta_ra_of_asc_node": 85.0047,
        "meta_arg_of_pericenter": 252.1717,
        "meta_mean_anomaly": 173.0425,
        "meta_ephemeris_type": 0,
        "meta_classification_type": "U",
        "meta_norad_cat_id": 29754,
        "meta_element_set_no": 999,
        "meta_rev_at_epoch": 97291,
        "meta_bstar": 0.0015562533,
        "meta_mean_motion_dot": 3.232e-05,
        "meta_mean_motion_ddot": 0,
        "tle_line1": "1 29754U 99025AU  25342.27611037  .00003232  00000+0  15563-2 0  9996",
        "tle_line2": "2 29754  98.8845  85.0047 0035731 252.1717 173.0425 14.19122789972913"
      },
      "geometry": {
        "type": "Point",
        "coordinates": [
          -155.15351228208925,
          -79.82362275476058
        ]
      }
    },
    {
      "type": "Feature",
      "properties": {
        "norad_id": 29758,
        "name": "FENGYUN 1C DEB",
        "group": "fengyun-1c-debris",
        "lat": -81.05581897572996,
        "lon": -179.53712776725283,
        "alt_km": 753.126585408866,
        "timestamp": "2025-12-08T17:43:05.202020+00:00",
        "meta_object_name": "FENGYUN 1C DEB",
        "meta_object_id": "1999-025AY",
        "meta_epoch": "2025-12-08T06:35:50.968608",
        "meta_mean_motion": 14.40875386,
        "meta_eccentricity": 0.00207018,
        "meta_inclination": 98.8561,
        "meta_ra_of_asc_node": 97.8304,
        "meta_arg_of_pericenter": 321.2544,
        "meta_mean_anomaly": 67.9953,
        "meta_ephemeris_type": 0,
        "meta_classification_type": "U",
        "meta_norad_cat_id": 29758,
        "meta_element_set_no": 999,
        "meta_rev_at_epoch": 97607,
        "meta_bstar": 0.0032276107,
        "meta_mean_motion_dot": 0.00010342,
        "meta_mean_motion_ddot": 0,
        "tle_line1": "1 29758U 99025AY  25342.27489547  .00010342  00000+0  32276-2 0  9999",
        "tle_line2": "2 29758  98.8561  97.8304 0020701 321.2544  67.9953 14.40875386976076"
      },
      "geometry": {
        "type": "Point",
        "coordinates": [
          -179.53712776725283,
          -81.05581897572996
        ]
      }
    }
  ]
}